{"type": "FeatureCollection", "features": [{"type": "Feature", "properties": {"norad_id": 28054, "name": "DMSP 5D-3 F16 (USA 172)", "group": "weather", "lat": -40.92661925603728, "lon": 20.664676426748663, "alt_km": 846.6268510547652, "timestamp": "2025-12-21T05:44:51.218572+00:00", "meta": {"OBJECT_NAME": "DMSP 5D-3 F16 (USA 172)", "OBJECT_ID": "2003-048A", "EPOCH": "2025-12-20T21:46:17.249376", "MEAN_MOTION": 14.1442689, "ECCENTRICITY": 0.00062874, "INCLINATION": 99.0038, "RA_OF_ASC_NODE": 12.4282, "ARG_OF_PERICENTER": 294.8489, "MEAN_ANOMALY": 132.3627, "EPHEMERIS_TYPE": 0, "CLASSIFICATION_TYPE": "U", "NORAD_CAT_ID": 28054, "ELEMENT_SET_NO": 999, "REV_AT_EPOCH": 14428, "BSTAR": 6.6040792e-05, "MEAN_MOTION_DOT": 8.1e-07, "MEAN_MOTION_DDOT": 0}, "tle": {"line1": "1 28054U 03048A   25354.90714409  .00000081  00000+0  66041-4 0  9996", "line2": "2 28054  99.0038  12.4282 0006287 294.8489 132.3627 14.14426890144288"}}, "geometry": {"type": "Point", "coordinates": [20.664676426748663, -40.92661925603728]}}, {"type": "Feature", "properties": {"norad_id": 28912, "name": "METEOSAT-9 (MSG-2)", "group": "weather", "lat": 2.4696631364456083, "lon": -140.08056105236005, "alt_km": 35995.05341243642, "timestamp": "2025-12-21T05:44:51.218628+00:00", "meta": {"OBJECT_NAME": "METEOSAT-9 (MSG-2)", "OBJECT_ID": "2005-049B", "EPOCH": "2025-12-20T18:34:58.766592", "MEAN_MOTION": 1.00265537, "ECCENTRICITY": 0.01042854, "INCLINATION": 8.9429, "RA_OF_ASC_NODE": 55.8777, "ARG_OF_PERICENTER": 282.8799, "MEAN_ANOMALY": 74.1046, "EPHEMERIS_TYPE": 0, "CLASSIFICATION_TYPE": "U", "NORAD_CAT_ID": 28912, "ELEMENT_SET_NO": 999, "REV_AT_EPOCH": 520, "BSTAR": 0, "MEAN_MOTION_DOT": 1.08e-06, "MEAN_MOTION_DDOT": 0}, "tle": {"line1": "1 28912U 05049B   25354.77429128  .00000108  00000+0  00000+0 0  9996", "line2": "2 28912   8.9429  55.8777 0104285 282.8799  74.1046  1.00265537  5208"}}, "geometry": {"type": "Point", "coordinates": [-140.08056105236005, 2.4696631364456083]}}, {"type": "Feature", "properties": {"norad_id": 29522, "name": "DMSP 5D-3 F17 (USA 191)", "group": "weather", "lat": -80.41231721279969, "lon": 66.04041089072406, "alt_km": 848.0279341909245, "timestamp": "2025-12-21T05:44:51.218646+00:00", "meta": {"OBJECT_NAME": "DMSP 5D-3 F17 (USA 191)", "OBJECT_ID": "2006-050A", "EPOCH": "2025-12-20T23:21:55.642752", "MEAN_MOTION": 14.14923022, "ECCENTRICITY": 0.0009748, "INCLINATION": 98.739, "RA_OF_ASC_NODE": 0.1912, "ARG_OF_PERICENTER": 200.0826, "MEAN_ANOMALY": 159.9966, "EPHEMERIS_TYPE": 0, "CLASSIFICATION_TYPE": "U", "NORAD_CAT_ID": 29522, "ELEMENT_SET_NO": 999, "REV_AT_EPOCH": 98721, "BSTAR": 8.626694e-05, "MEAN_MOTION_DOT": 1.23e-06, "MEAN_MOTION_DDOT": 0}, "tle": {"line1": "1 29522U 06050A   25354.97356068  .00000123  00000+0  86267-4 0  9992", "line2": "2 29522  98.7390   0.1912 0009748 200.0826 159.9966 14.14923022987217"}}, "geometry": {"type": "Point", "coordinates": [66.04041089072406, -80.41231721279969]}}, {"type": "Feature", "properties": {"norad_id": 32958, "name": "FENGYUN 3A", "group": "weather", "lat": 50.92831025364196, "lon": 125.42133665796138, "alt_km": 827.2589656636937, "timestamp": "2025-12-21T05:44:51.218660+00:00", "meta": {"OBJECT_NAME": "FENGYUN 3A", "OBJECT_ID": "2008-026A", "EPOCH": "2025-12-20T20:41:12.694272", "MEAN_MOTION": 14.195169, "ECCENTRICITY": 0.00076612, "INCLINATION": 98.6708, "RA_OF_ASC_NODE": 294.218, "ARG_OF_PERICENTER": 284.299, "MEAN_ANOMALY": 75.7335, "EPHEMERIS_TYPE": 0, "CLASSIFICATION_TYPE": "U", "NORAD_CAT_ID": 32958, "ELEMENT_SET_NO": 999, "REV_AT_EPOCH": 91010, "BSTAR": 5.2159354e-05, "MEAN_MOTION_DOT": 6.7e-07, "MEAN_MOTION_DDOT": 0}, "tle": {"line1": "1 32958U 08026A   25354.86195248  .00000067  00000+0  52159-4 0  9993", "line2": "2 32958  98.6708 294.2180 0007661 284.2990  75.7335 14.19516900910104"}}, "geometry": {"type": "Point", "coordinates": [125.42133665796138, 50.92831025364196]}}, {"type": "Feature", "properties": {"norad_id": 35491, "name": "GOES 14", "group": "weather", "lat": -0.4779094543737441, "lon": 61.15865280275919, "alt_km": 35837.186227323546, "timestamp": "2025-12-21T05:44:51.218674+00:00", "meta": {"OBJECT_NAME": "GOES 14", "OBJECT_ID": "2009-033A", "EPOCH": "2025-12-20T14:23:46.908672", "MEAN_MOTION": 1.00096889, "ECCENTRICITY": 5.175e-05, "INCLINATION": 1.223, "RA_OF_ASC_NODE": 85.3269, "ARG_OF_PERICENTER": 182.5261, "MEAN_ANOMALY": 282.8096, "EPHEMERIS_TYPE": 0, "CLASSIFICATION_TYPE": "U", "NORAD_CAT_ID": 35491, "ELEMENT_SET_NO": 999, "REV_AT_EPOCH": 480, "BSTAR": 0, "MEAN_MOTION_DOT": 2.1e-07, "MEAN_MOTION_DDOT": 0}, "tle": {"line1": "1 35491U 09033A   25354.59984848  .00000021  00000+0  00000+0 0  9992", "line2": "2 35491   1.2230  85.3269 0000517 182.5261 282.8096  1.00096889  4801"}}, "geometry": {"type": "Point", "coordinates": [61.15865280275919, -0.4779094543737441]}}, {"type": "Feature", "properties": {"norad_id": 35951, "name": "DMSP 5D-3 F18 (USA 210)", "group": "weather", "lat": 42.3625134537075, "lon": 159.7985161957049, "alt_km": 840.5334078425058, "timestamp": "2025-12-21T05:44:51.218687+00:00", "meta": {"OBJECT_NAME": "DMSP 5D-3 F18 (USA 210)", "OBJECT_ID": "2009-057A", "EPOCH": "2025-12-20T22:18:51.487776", "MEAN_MOTION": 14.14774234, "ECCENTRICITY": 0.00118529, "INCLINATION": 98.8842, "RA_OF_ASC_NODE": 331.2899, "ARG_OF_PERICENTER": 41.1913, "MEAN_ANOMALY": 319.0153, "EPHEMERIS_TYPE": 0, "CLASSIFICATION_TYPE": "U", "NORAD_CAT_ID": 35951, "ELEMENT_SET_NO": 999, "REV_AT_EPOCH": 83438, "BSTAR": 0.00013074712, "MEAN_MOTION_DOT": 2.08e-06, "MEAN_MOTION_DDOT": 0}, "tle": {"line1": "1 35951U 09057A   25354.92976259  .00000208  00000+0  13075-3 0  9990", "line2": "2 35951  98.8842 331.2899 0011852  41.1913 319.0153 14.14774234834380"}}, "geometry": {"type": "Point", "coordinates": [159.7985161957049, 42.3625134537075]}}, {"type": "Feature", "properties": {"norad_id": 36411, "name": "EWS-G2 (GOES 15)", "group": "weather", "lat": 0.37467038680850695, "lon": -122.39505760902655, "alt_km": 35765.534539958695, "timestamp": "2025-12-21T05:44:51.218700+00:00", "meta": {"OBJECT_NAME": "EWS-G2 (GOES 15)", "OBJECT_ID": "2010-008A", "EPOCH": "2025-12-20T22:04:53.664384", "MEAN_MOTION": 1.00270839, "ECCENTRICITY": 0.00054571, "INCLINATION": 0.8326, "RA_OF_ASC_NODE": 86.0876, "ARG_OF_PERICENTER": 177.7095, "MEAN_ANOMALY": 218.5367, "EPHEMERIS_TYPE": 0, "CLASSIFICATION_TYPE": "U", "NORAD_CAT_ID": 36411, "ELEMENT_SET_NO": 999, "REV_AT_EPOCH": 5785, "BSTAR": 0, "MEAN_MOTION_DOT": 6.1e-07, "MEAN_MOTION_DDOT": 0}, "tle": {"line1": "1 36411U 10008A   25354.92006556  .00000061  00000+0  00000+0 0  9991", "line2": "2 36411   0.8326  86.0876 0005457 177.7095 218.5367  1.00270839 57855"}}, "geometry": {"type": "Point", "coordinates": [-122.39505760902655, 0.37467038680850695]}}, {"type": "Feature", "properties": {"norad_id": 36744, "name": "COMS 1", "group": "weather", "lat": -3.1875518247985277, "lon": -55.628750456661244, "alt_km": 35783.771035470076, "timestamp": "2025-12-21T05:44:51.218713+00:00", "meta": {"OBJECT_NAME": "COMS 1", "OBJECT_ID": "2010-032A", "EPOCH": "2025-12-20T17:15:48.580128", "MEAN_MOTION": 1.00272163, "ECCENTRICITY": 6.966e-05, "INCLINATION": 4.3584, "RA_OF_ASC_NODE": 77.9096, "ARG_OF_PERICENTER": 203.045, "MEAN_ANOMALY": 195.7243, "EPHEMERIS_TYPE": 0, "CLASSIFICATION_TYPE": "U", "NORAD_CAT_ID": 36744, "ELEMENT_SET_NO": 999, "REV_AT_EPOCH": 4930, "BSTAR": 0, "MEAN_MOTION_DOT": -3.24e-06, "MEAN_MOTION_DDOT": 0}, "tle": {"line1": "1 36744U 10032A   25354.71931227 -.00000324  00000+0  00000+0 0  9999", "line2": "2 36744   4.3584  77.9096 0000696 203.0450 195.7243  1.00272163 49302"}}, "geometry": {"type": "Point", "coordinates": [-55.628750456661244, -3.1875518247985277]}}, {"type": "Feature", "properties": {"norad_id": 37214, "name": "FENGYUN 3B", "group": "weather", "lat": 74.87325901202205, "lon": -108.87753764435807, "alt_km": 845.5994856665984, "timestamp": "2025-12-21T05:44:51.218725+00:00", "meta": {"OBJECT_NAME": "FENGYUN 3B", "OBJECT_ID": "2010-059A", "EPOCH": "2025-12-20T23:02:32.156160", "MEAN_MOTION": 14.14791231, "ECCENTRICITY": 0.00216699, "INCLINATION": 98.9899, "RA_OF_ASC_NODE": 34.9948, "ARG_OF_PERICENTER": 334.4054, "MEAN_ANOMALY": 145.3922, "EPHEMERIS_TYPE": 0, "CLASSIFICATION_TYPE": "U", "NORAD_CAT_ID": 37214, "ELEMENT_SET_NO": 999, "REV_AT_EPOCH": 78222, "BSTAR": -8.4886952e-05, "MEAN_MOTION_DOT": -2.1e-06, "MEAN_MOTION_DDOT": 0}, "tle": {"line1": "1 37214U 10059A   25354.96009440 -.00000210  00000+0 -84887-4 0  9996", "line2": "2 37214  98.9899  34.9948 0021669 334.4054 145.3922 14.14791231782225"}}, "geometry": {"type": "Point", "coordinates": [-108.87753764435807, 74.87325901202205]}}, {"type": "Feature", "properties": {"norad_id": 37849, "name": "SUOMI NPP", "group": "weather", "lat": 80.7220469439954, "lon": -138.5502185644621, "alt_km": 817.8771346725143, "timestamp": "2025-12-21T05:44:51.218736+00:00", "meta": {"OBJECT_NAME": "SUOMI NPP", "OBJECT_ID": "2011-061A", "EPOCH": "2025-12-17T23:31:21.474624", "MEAN_MOTION": 14.19515682, "ECCENTRICITY": 0.00023932, "INCLINATION": 98.7779, "RA_OF_ASC_NODE": 289.2746, "ARG_OF_PERICENTER": 111.1248, "MEAN_ANOMALY": 249.0184, "EPHEMERIS_TYPE": 0, "CLASSIFICATION_TYPE": "U", "NORAD_CAT_ID": 37849, "ELEMENT_SET_NO": 999, "REV_AT_EPOCH": 73273, "BSTAR": 4.8615036e-05, "MEAN_MOTION_DOT": 5.8e-07, "MEAN_MOTION_DDOT": 0}, "tle": {"line1": "1 37849U 11061A   25351.98010966  .00000058  00000+0  48615-4 0  9995", "line2": "2 37849  98.7779 289.2746 0002393 111.1248 249.0184 14.19515682732735"}}, "geometry": {"type": "Point", "coordinates": [-138.5502185644621, 80.7220469439954]}}]}